[{"OBJECT_NAME":"SHIJIAN-6 03B (SJ-6 03B)","OBJECT_ID":"2008-053B","EPOCH":"2026-03-09T23:28:00.216192","MEAN_MOTION":15.03879314,"ECCENTRICITY":0.00200774,"INCLINATION":97.8673,"RA_OF_ASC_NODE":87.2117,"ARG_OF_PERICENTER":21.0315,"MEAN_ANOMALY":339.1731,"EPHEMERIS_TYPE":0,"CLASSIFICATION_TYPE":"U","NORAD_CAT_ID":33409,"ELEMENT_SET_NO":999,"REV_AT_EPOCH":94783,"BSTAR":0.00032650966,"MEAN_MOTION_DOT":4.452e-5,"MEAN_MOTION_DDOT":0},{"OBJECT_NAME":"STARLINK-35049","OBJECT_ID":"2025-194L","EPOCH":"2026-03-09T12:44:06.889056","MEAN_MOTION":15.05663466,"ECCENTRICITY":0.0002185,"INCLINATION":97.6019,"RA_OF_ASC_NODE":284.2328,"ARG_OF_PERICENTER":82.4381,"MEAN_ANOMALY":277.7094,"EPHEMERIS_TYPE":0,"CLASSIFICATION_TYPE":"U","NORAD_CAT_ID":65444,"ELEMENT_SET_NO":999,"REV_AT_EPOCH":2962,"BSTAR":0.00012815303,"MEAN_MOTION_DOT":1.789e-5,"MEAN_MOTION_DDOT":0}]
